CTC1_L_00453078-09
1 45676U 26643CM  26070.40836806  .00000000  00000+0  00000-0 0  9998
2 45676  88.0000 350.8861 0000000   0.0000 267.7215 15.90815360    16
CTC1_L_00453078-10
1 45677U 24069LT  26070.40836806  .00000000  00000+0  00000-0 0  9999
2 45677  88.0000 350.8861 0000000   0.0000 290.2215 15.90815360    18
CTC1_L_00453078-11
1 45678U 23472IM  26070.40836806  .00000000  00000+0  00000-0 0  9997
2 45678  88.0000 350.8861 0000000   0.0000 312.7215 15.90815360    19
CTC1_L_00453078-12
1 45679U 23240MA  26070.40836806  .00000000  00000+0  00000-0 0  9991
2 45679  88.0000 350.8861 0000000   0.0000 335.2215 15.90815360    10
CTC1_L_00453078-13
1 45680U 24945DG  26070.40836806  .00000000  00000+0  00000-0 0  9996
2 45680  88.0000 350.8861 0000000   0.0000 357.7215 15.90815360    11
CTC1_L_00453078-14
1 45681U 24726YM  26070.40836806  .00000000  00000+0  00000-0 0  9994
2 45681  88.0000 350.8861 0000000   0.0000  20.2215 15.90815360    14
CTC1_L_00453078-15
1 45682U 23171DN  26070.40836806  .00000000  00000+0  00000-0 0  9998
2 45682  88.0000 350.8861 0000000   0.0000  42.7215 15.90815360    14
CTC1_L_00453078-16
1 45683U 24850CW  26070.40836806  .00000000  00000+0  00000-0 0  9994
2 45683  88.0000 350.8861 0000000   0.0000  65.2215 15.90815360    15
CTC1_L_00453079-01
1 45684U 26750MX  26070.40836806  .00000000  00000+0  00000-0 0  9996
2 45684  88.0000 355.4430 0000000   0.0000  88.8608 15.90815360    16
CTC1_L_00453079-02
1 45685U 22201IW  26070.40836806  .00000000  00000+0  00000-0 0  9994
2 45685  88.0000 355.4430 0000000   0.0000 111.3608 15.90815360    19
CTC1_L_00453079-03
1 45686U 26835NU  26070.40836806  .00000000  00000+0  00000-0 0  9992
2 45686  88.0000 355.4430 0000000   0.0000 133.8608 15.90815360    19
CTC1_L_00453079-04
1 45687U 23725TA  26070.40836806  .00000000  00000+0  00000-0 0  9998
2 45687  88.0000 355.4430 0000000   0.0000 156.3608 15.90815360    10
CTC1_L_00453079-05
1 45688U 25866QK  26070.40836806  .00000000  00000+0  00000-0 0  9997
2 45688  88.0000 355.4430 0000000   0.0000 178.8608 15.90815360    10
CTC1_L_00453079-06
1 45689U 23098KP  26070.40836806  .00000000  00000+0  00000-0 0  9993
2 45689  88.0000 355.4430 0000000   0.0000 201.3608 15.90815360    13
CTC1_L_00453079-07
1 45690U 25003GX  26070.40836806  .00000000  00000+0  00000-0 0  9993
2 45690  88.0000 355.4430 0000000   0.0000 223.8608 15.90815360    14
CTC1_L_00453079-08
1 45691U 24407GT  26070.40836806  .00000000  00000+0  00000-0 0  9991
2 45691  88.0000 355.4430 0000000   0.0000 246.3608 15.90815360    15
CTC1_L_00453079-09
1 45692U 23124TG  26070.40836806  .00000000  00000+0  00000-0 0  9997
2 45692  88.0000 355.4430 0000000   0.0000 268.8608 15.90815360    15
CTC1_L_00453079-10
1 45693U 24441LU  26070.40836806  .00000000  00000+0  00000-0 0  9991
2 45693  88.0000 355.4430 0000000   0.0000 291.3608 15.90815360    17
CTC1_L_00453079-11
1 45694U 24916FR  26070.40836806  .00000000  00000+0  00000-0 0  9999
2 45694  88.0000 355.4430 0000000   0.0000 313.8608 15.90815360    18
CTC1_L_00453079-12
1 45695U 22866U   26070.40836806  .00000000  00000+0  00000-0 0  9992
2 45695  88.0000 355.4430 0000000   0.0000 336.3608 15.90815360    19
CTC1_L_00453079-13
1 45696U 22775UM  26070.40836806  .00000000  00000+0  00000-0 0  9992
2 45696  88.0000 355.4430 0000000   0.0000 358.8608 15.90815360    19
CTC1_L_00453079-14
1 45697U 25826OR  26070.40836806  .00000000  00000+0  00000-0 0  9993
2 45697  88.0000 355.4430 0000000   0.0000  21.3608 15.90815360    12
CTC1_L_00453079-15
1 45698U 23628NK  26070.40836806  .00000000  00000+0  00000-0 0  9992
2 45698  88.0000 355.4430 0000000   0.0000  43.8608 15.90815360    12
CTC1_L_00453079-16
1 45699U 26961QD  26070.40836806  .00000000  00000+0  00000-0 0  9996
2 45699  88.0000 355.4430 0000000   0.0000  66.3608 15.90815360    13
